[{"OBJECT_NAME":"ONEWEB-0313","OBJECT_ID":"2021-075AA","EPOCH":"2026-03-09T22:38:18.757824","MEAN_MOTION":13.17649082,"ECCENTRICITY":0.00018653,"INCLINATION":87.9154,"RA_OF_ASC_NODE":25.5878,"ARG_OF_PERICENTER":79.1307,"MEAN_ANOMALY":281.0034,"EPHEMERIS_TYPE":0,"CLASSIFICATION_TYPE":"U","NORAD_CAT_ID":49099,"ELEMENT_SET_NO":999,"REV_AT_EPOCH":22052,"BSTAR":0.0005458972,"MEAN_MOTION_DOT":2.25e-6,"MEAN_MOTION_DDOT":0},{"OBJECT_NAME":"COSMOS 886 DEB","OBJECT_ID":"1976-126M","EPOCH":"2026-03-09T22:12:52.532928","MEAN_MOTION":13.82653067,"ECCENTRICITY":0.06461963,"INCLINATION":65.7873,"RA_OF_ASC_NODE":333.1273,"ARG_OF_PERICENTER":140.6509,"MEAN_ANOMALY":224.3408,"EPHEMERIS_TYPE":0,"CLASSIFICATION_TYPE":"U","NORAD_CAT_ID":9655,"ELEMENT_SET_NO":999,"REV_AT_EPOCH":37570,"BSTAR":0.00072487394,"MEAN_MOTION_DOT":4.06e-5,"MEAN_MOTION_DDOT":0}]
